{
"type": "FeatureCollection",
"name": "barabara",
"crs": { "type": "name", "properties": { "name": "urn:ogc:def:crs:OGC:1.3:CRS84" } },
"features": [
{ "type": "Feature", "properties": { "id": 1, "name": "road-road" }, "geometry": { "type": "MultiLineString", "coordinates": [ [ [ 39.276390922438267, -6.864820735055962 ], [ 39.27644268099403, -6.864879463617398 ], [ 39.276509227708573, -6.865077672458741 ], [ 39.276464863232199, -6.865165765250618 ], [ 39.276213464532837, -6.865312586534172 ], [ 39.276176494135882, -6.865290563344526 ] ] ] } },
{ "type": "Feature", "properties": { "id": 2, "name": "mbg_road-to-in" }, "geometry": { "type": "MultiLineString", "coordinates": [ [ [ 39.276176494135882, -6.865290563344526 ], [ 39.276272617167976, -6.865378656096994 ], [ 39.277396517235765, -6.865797096448515 ] ] ] } },
{ "type": "Feature", "properties": { "id": 3, "name": "pc3" }, "geometry": { "type": "MultiLineString", "coordinates": [ [ [ 39.277396517235765, -6.865797096448515 ], [ 39.277781009364219, -6.86517310631587 ], [ 39.27850562914476, -6.864409634922989 ] ] ] } },
{ "type": "Feature", "properties": { "id": 4, "name": "pc4" }, "geometry": { "type": "MultiLineString", "coordinates": [ [ [ 39.27850562914476, -6.864409634922988 ], [ 39.279407706830746, -6.86339656522251 ] ] ] } },
{ "type": "Feature", "properties": { "id": 5, "name": "pc5" }, "geometry": { "type": "MultiLineString", "coordinates": [ [ [ 39.279407706830746, -6.86339656522251 ], [ 39.279784804879796, -6.863778301884548 ] ] ] } },
{ "type": "Feature", "properties": { "id": 6, "name": "pc6" }, "geometry": { "type": "MultiLineString", "coordinates": [ [ [ 39.279784804879796, -6.863778301884548 ], [ 39.278890121273214, -6.864703277911348 ] ] ] } },
{ "type": "Feature", "properties": { "id": 7, "name": "pc7" }, "geometry": { "type": "MultiLineString", "coordinates": [ [ [ 39.278890121273214, -6.864703277911348 ], [ 39.278927091670177, -6.864835417197 ], [ 39.280294996357938, -6.866200854333619 ] ] ] } },
{ "type": "Feature", "properties": { "id": 8, "name": "pc8" }, "geometry": { "type": "MultiLineString", "coordinates": [ [ [ 39.280294996357938, -6.866200854333619 ], [ 39.280487242422161, -6.866171490135343 ] ] ] } },
{ "type": "Feature", "properties": { "id": 9, "name": "pc9" }, "geometry": { "type": "MultiLineString", "coordinates": [ [ [ 39.280487242422161, -6.866171490135342 ], [ 39.280524212819117, -6.865907212269339 ], [ 39.280428089787023, -6.865114377790671 ], [ 39.280354148993084, -6.86436558845911 ] ] ] } },
{ "type": "Feature", "properties": { "id": 10, "name": "pc10" }, "geometry": { "type": "MultiLineString", "coordinates": [ [ [ 39.280354148993084, -6.86436558845911 ], [ 39.280117538452494, -6.864042580932776 ], [ 39.279784804879796, -6.863778301884548 ] ] ] } },
{ "type": "Feature", "properties": { "id": 11, "name": "pc11" }, "geometry": { "type": "MultiLineString", "coordinates": [ [ [ 39.279784804879796, -6.863778301884548 ], [ 39.279821775276758, -6.864519751064856 ], [ 39.279792198959193, -6.864629867181242 ] ] ] } },
{ "type": "Feature", "properties": { "id": 12, "name": "pc12" }, "geometry": { "type": "MultiLineString", "coordinates": [ [ [ 39.279792198959193, -6.86462986718124 ], [ 39.27952601210103, -6.864974897514275 ], [ 39.279289401560455, -6.86518778844604 ] ] ] } },
{ "type": "Feature", "properties": { "id": 13, "name": "pc13" }, "geometry": { "type": "MultiLineString", "coordinates": [ [ [ 39.277159906695182, -6.862956099462838 ], [ 39.277440881712131, -6.863235061157951 ] ] ] } },
{ "type": "Feature", "properties": { "id": 14, "name": "pc14" }, "geometry": { "type": "MultiLineString", "coordinates": [ [ [ 39.277440881712131, -6.863235061157951 ], [ 39.277514822506049, -6.863469976142832 ], [ 39.277677492252714, -6.863631480127684 ] ] ] } },
{ "type": "Feature", "properties": { "id": 15, "name": "pc15" }, "geometry": { "type": "MultiLineString", "coordinates": [ [ [ 39.277677492252714, -6.863631480127684 ], [ 39.277854950158151, -6.863690208835867 ], [ 39.278764421923519, -6.864673913620663 ], [ 39.278890121273214, -6.864703277911348 ] ] ] } },
{ "type": "Feature", "properties": { "id": 16, "name": "pc16" }, "geometry": { "type": "MultiLineString", "coordinates": [ [ [ 39.278764421923519, -6.864673913620662 ], [ 39.278757027844129, -6.864791370772524 ], [ 39.278816180479275, -6.864850099337584 ], [ 39.278927091670177, -6.864835417197 ] ] ] } },
{ "type": "Feature", "properties": { "id": 17, "name": "pc17" }, "geometry": { "type": "MultiLineString", "coordinates": [ [ [ 39.277854950158151, -6.863690208835867 ], [ 39.278365141636286, -6.863176332393618 ], [ 39.278579569938685, -6.863095580330828 ], [ 39.278993638384719, -6.863117603622038 ], [ 39.279407706830746, -6.86339656522251 ] ] ] } },
{ "type": "Feature", "properties": { "id": 18, "name": "pc18" }, "geometry": { "type": "MultiLineString", "coordinates": [ [ [ 39.278202471889628, -6.864027898767279 ], [ 39.278490840985981, -6.863748937536798 ], [ 39.278697875208991, -6.863514022689589 ], [ 39.278993638384719, -6.863117603622038 ] ] ] } },
{ "type": "Feature", "properties": { "id": 19, "name": "pc19" }, "geometry": { "type": "MultiLineString", "coordinates": [ [ [ 39.277677492252714, -6.863631480127683 ], [ 39.277751433046646, -6.863903100342275 ], [ 39.278047196222381, -6.86412333283491 ], [ 39.278106348857527, -6.864145356078568 ], [ 39.278217260048429, -6.864115991753463 ], [ 39.278202471889628, -6.864027898767279 ] ] ] } },
{ "type": "Feature", "properties": { "id": 20, "name": "pc20" }, "geometry": { "type": "MultiLineString", "coordinates": [ [ [ 39.280294996357938, -6.866200854333619 ], [ 39.280265420040365, -6.866318311108592 ] ] ] } },
{ "type": "Feature", "properties": { "id": 21, "name": "pc21" }, "geometry": { "type": "MultiLineString", "coordinates": [ [ [ 39.280265420040365, -6.866318311108592 ], [ 39.280302390437328, -6.866421085762906 ], [ 39.280465060183978, -6.86644310890023 ], [ 39.280546395057307, -6.866347675297803 ], [ 39.280487242422161, -6.866171490135342 ] ] ] } }
]
}
