{
"type": "FeatureCollection",
"name": "majengo",
"crs": { "type": "name", "properties": { "name": "urn:ogc:def:crs:OGC:1.3:CRS84" } },
"features": [
{ "type": "Feature", "properties": { "id": 1, "1": "j1" }, "geometry": { "type": "MultiPolygon", "coordinates": [ [ [ [ 39.27850562914476, -6.865965940696689 ], [ 39.278351759722362, -6.865853060689848 ], [ 39.278631998056476, -6.865492887811578 ], [ 39.278777875545465, -6.865607228437389 ], [ 39.27850562914476, -6.865965940696689 ] ] ] ] } },
{ "type": "Feature", "properties": { "id": 2, "1": "j2" }, "geometry": { "type": "MultiPolygon", "coordinates": [ [ [ [ 39.278324887553332, -6.865822569874736 ], [ 39.278179010064342, -6.86571775768289 ], [ 39.278459248398455, -6.865359490380075 ], [ 39.278605125887445, -6.865470019683117 ], [ 39.278324887553332, -6.865822569874736 ] ] ] ] } },
{ "type": "Feature", "properties": { "id": 3, "1": "j3" }, "geometry": { "type": "MultiPolygon", "coordinates": [ [ [ [ 39.278163353826834, -6.865695485089148 ], [ 39.278013735006752, -6.865582583784948 ], [ 39.278288964049061, -6.865219945552631 ], [ 39.278440573840527, -6.865329909494573 ], [ 39.278163353826834, -6.865695485089148 ] ] ] ] } },
{ "type": "Feature", "properties": { "id": 4, "1": "j4" }, "geometry": { "type": "MultiPolygon", "coordinates": [ [ [ [ 39.277899566952748, -6.865487756036128 ], [ 39.27795620583332, -6.865606469610916 ], [ 39.277918446579612, -6.865623131162902 ], [ 39.27785761222642, -6.865506500286746 ], [ 39.277899566952748, -6.865487756036128 ] ] ] ] } },
{ "type": "Feature", "properties": { "id": null, "1": null }, "geometry": { "type": "MultiPolygon", "coordinates": [ [ [ [ 39.277752725410572, -6.865537740702806 ], [ 39.277853416753786, -6.865585642670113 ], [ 39.277800973345855, -6.865712686994836 ], [ 39.2776939887937, -6.865662702346534 ], [ 39.277752725410572, -6.865537740702806 ] ] ] ] } },
{ "type": "Feature", "properties": { "id": 6, "1": "j6" }, "geometry": { "type": "MultiPolygon", "coordinates": [ [ [ [ 39.277633154440508, -6.865469011784769 ], [ 39.277731748047401, -6.865518996453416 ], [ 39.277668815957895, -6.865652288877477 ], [ 39.277563929142048, -6.865598138834705 ], [ 39.277633154440508, -6.865469011784769 ] ] ] ] } },
{ "type": "Feature", "properties": { "id": 7, "1": "j7" }, "geometry": { "type": "MultiPolygon", "coordinates": [ [ [ [ 39.277979280932804, -6.865685611977656 ], [ 39.277928935261194, -6.865764754331233 ], [ 39.277884882798539, -6.86574392739736 ], [ 39.277886980534859, -6.865727265849602 ], [ 39.277832439390615, -6.865727265849602 ], [ 39.277876491853277, -6.865643958102065 ], [ 39.277901664689068, -6.865677281202833 ], [ 39.277928935261194, -6.865658536958937 ], [ 39.277979280932804, -6.865685611977656 ] ] ] ] } },
{ "type": "Feature", "properties": { "id": 8, "1": "j8" }, "geometry": { "type": "MultiPolygon", "coordinates": [ [ [ [ 39.278674674547709, -6.866265187052072 ], [ 39.278720571156583, -6.866282907720522 ], [ 39.278677224359328, -6.866396826287668 ], [ 39.278626228127237, -6.86637404257642 ], [ 39.278674674547709, -6.866265187052072 ] ] ] ] } },
{ "type": "Feature", "properties": { "id": 9, "1": "j9" }, "geometry": { "type": "MultiPolygon", "coordinates": [ [ [ [ 39.279046947041913, -6.865622179493252 ], [ 39.279131090824848, -6.865546233661215 ], [ 39.2792815297095, -6.865708251421572 ], [ 39.279199935738163, -6.865789260281069 ], [ 39.279046947041913, -6.865622179493252 ] ] ] ] } },
{ "type": "Feature", "properties": { "id": 10, "1": "j10" }, "geometry": { "type": "MultiPolygon", "coordinates": [ [ [ [ 39.279205035361372, -6.865551296717062 ], [ 39.279307027825539, -6.865462693231974 ], [ 39.279414119912907, -6.865571548939905 ], [ 39.279312127448755, -6.865662683932049 ], [ 39.279205035361372, -6.865551296717062 ] ] ] ] } },
{ "type": "Feature", "properties": { "id": 11, "1": "j11" }, "geometry": { "type": "MultiPolygon", "coordinates": [ [ [ [ 39.279291728955911, -6.865789260281069 ], [ 39.279409020289705, -6.865675341568465 ], [ 39.279460016521796, -6.865680404622936 ], [ 39.27950081350744, -6.865715846002736 ], [ 39.279505913130663, -6.865751287379896 ], [ 39.279378422550444, -6.865880395231512 ], [ 39.279291728955911, -6.865789260281069 ] ] ] ] } },
{ "type": "Feature", "properties": { "id": 12, "1": "j12" }, "geometry": { "type": "MultiPolygon", "coordinates": [ [ [ [ 39.279488064449431, -6.865895584388223 ], [ 39.279633403710868, -6.865758881960373 ], [ 39.279758344479475, -6.865905710492425 ], [ 39.279615555029636, -6.866044944403387 ], [ 39.279488064449431, -6.865895584388223 ] ] ] ] } },
{ "type": "Feature", "properties": { "id": 13, "1": "j13" }, "geometry": { "type": "MultiPolygon", "coordinates": [ [ [ [ 39.279712447870601, -6.866034818302145 ], [ 39.279799141465134, -6.865943683381275 ], [ 39.279911333175704, -6.866052538979175 ], [ 39.279816990146365, -6.866143673879196 ], [ 39.279712447870601, -6.866034818302145 ] ] ] ] } },
{ "type": "Feature", "properties": { "id": 14, "1": "j14" }, "geometry": { "type": "MultiPolygon", "coordinates": [ [ [ [ 39.279824639581172, -6.866244934858748 ], [ 39.279862886755232, -6.866212025042756 ], [ 39.279931731668555, -6.866285439244534 ], [ 39.27988583505968, -6.866320880579267 ], [ 39.279824639581172, -6.866244934858748 ] ] ] ] } },
{ "type": "Feature", "properties": { "id": 15, "1": "j15" }, "geometry": { "type": "MultiPolygon", "coordinates": [ [ [ [ 39.28000057658187, -6.866249997907158 ], [ 39.280089819988007, -6.866168989126104 ], [ 39.28012806716206, -6.86620189894507 ], [ 39.280036273944312, -6.866287970768529 ], [ 39.28000057658187, -6.866249997907158 ] ] ] ] } },
{ "type": "Feature", "properties": { "id": 15, "1": "j15" }, "geometry": { "type": "MultiPolygon", "coordinates": [ [ [ [ 39.27968949956616, -6.866280376196499 ], [ 39.279720097305415, -6.86630315991223 ], [ 39.279613005218032, -6.866429736090875 ], [ 39.279579857667173, -6.866396826287668 ], [ 39.27968949956616, -6.866280376196499 ] ] ] ] } },
{ "type": "Feature", "properties": { "id": 5, "1": "j5" }, "geometry": { "type": "MultiPolygon", "coordinates": [ [ [ [ 39.279618104841234, -6.866518339395891 ], [ 39.279778742972297, -6.866356321911364 ], [ 39.279814440334761, -6.866389231717373 ], [ 39.279653802203704, -6.866556312235848 ], [ 39.279618104841234, -6.866518339395891 ] ] ] ] } },
{ "type": "Feature", "properties": { "id": 17, "1": "j17" }, "geometry": { "type": "MultiPolygon", "coordinates": [ [ [ [ 39.280375398887678, -6.865943683381275 ], [ 39.28042384530815, -6.865928494226099 ], [ 39.280446793612576, -6.866022160675288 ], [ 39.280400897003702, -6.8660322867768 ], [ 39.280375398887678, -6.865943683381275 ] ] ] ] } },
{ "type": "Feature", "properties": { "id": 17, "1": "j17" }, "geometry": { "type": "MultiPolygon", "coordinates": [ [ [ [ 39.279979198938264, -6.866411014698262 ], [ 39.280011741713651, -6.866372243457977 ], [ 39.280076827264402, -6.866430400317216 ], [ 39.280037775933955, -6.866472402488912 ], [ 39.279979198938264, -6.866411014698262 ] ] ] ] } },
{ "type": "Feature", "properties": { "id": 16, "1": "j16" }, "geometry": { "type": "MultiPolygon", "coordinates": [ [ [ [ 39.279969436105652, -6.866633949268568 ], [ 39.280102861484707, -6.866491788105368 ], [ 39.280102861484707, -6.866575792434209 ], [ 39.280200489810866, -6.866659796748226 ], [ 39.280233032586239, -6.866659796748226 ], [ 39.280109370039796, -6.866789034125438 ], [ 39.279969436105652, -6.866633949268568 ] ] ] ] } },
{ "type": "Feature", "properties": { "id": 18, "1": "j18" }, "geometry": { "type": "MultiPolygon", "coordinates": [ [ [ [ 39.279770925175818, -6.86657256149876 ], [ 39.279836010726576, -6.866511173721032 ], [ 39.279910859109961, -6.866595178046454 ], [ 39.279836010726576, -6.866650103943518 ], [ 39.279770925175818, -6.86657256149876 ] ] ] ] } },
{ "type": "Feature", "properties": { "id": 18, "1": "j18" }, "geometry": { "type": "MultiPolygon", "coordinates": [ [ [ [ 39.279657025461987, -6.866595178046454 ], [ 39.279718856735201, -6.866543483078718 ], [ 39.279842519281658, -6.866688875161158 ], [ 39.27986855350197, -6.866672720487524 ], [ 39.279914113387491, -6.866724415441219 ], [ 39.279865299224426, -6.866779341323364 ], [ 39.279657025461987, -6.866595178046454 ] ] ] ] } },
{ "type": "Feature", "properties": { "id": 19, "1": "j19" }, "geometry": { "type": "MultiPolygon", "coordinates": [ [ [ [ 39.277718622739222, -6.865380948669862 ], [ 39.27776066476698, -6.865342189562092 ], [ 39.27784775182451, -6.865455485406697 ], [ 39.27779970379278, -6.865488281567206 ], [ 39.277718622739222, -6.865380948669862 ] ] ] ] } },
{ "type": "Feature", "properties": { "id": 20, "1": "20" }, "geometry": { "type": "MultiPolygon", "coordinates": [ [ [ [ 39.277835739816581, -6.865127523677293 ], [ 39.277949853891968, -6.865067894247666 ], [ 39.278003907927683, -6.865160319860405 ], [ 39.277883787848332, -6.865228893690516 ], [ 39.277835739816581, -6.865127523677293 ] ] ] ] } },
{ "type": "Feature", "properties": { "id": 21, "1": "21" }, "geometry": { "type": "MultiPolygon", "coordinates": [ [ [ [ 39.278178082042743, -6.864811487615126 ], [ 39.278472376237161, -6.86454315494477 ], [ 39.278733637409744, -6.864826394981264 ], [ 39.278430334209375, -6.865085783077337 ], [ 39.278178082042743, -6.864811487615126 ] ] ] ] } },
{ "type": "Feature", "properties": { "id": 22, "1": "j22" }, "geometry": { "type": "MultiPolygon", "coordinates": [ [ [ [ 39.278160064030828, -6.865267652807512 ], [ 39.277961865899911, -6.865014227754613 ], [ 39.278048952957434, -6.864942672421124 ], [ 39.278238142082422, -6.865208023395442 ], [ 39.278160064030828, -6.865267652807512 ] ] ] ] } },
{ "type": "Feature", "properties": { "id": 22, "1": "j22" }, "geometry": { "type": "MultiPolygon", "coordinates": [ [ [ [ 39.278241145084401, -6.865091746020414 ], [ 39.278202106058615, -6.86503807953005 ], [ 39.278166070034807, -6.865070875719323 ], [ 39.278078982977277, -6.864972487144719 ], [ 39.278115019001078, -6.864942672421124 ], [ 39.278072976973306, -6.864886024441151 ], [ 39.278142046018935, -6.864832357927587 ], [ 39.278322226137959, -6.865029135114399 ], [ 39.278241145084401, -6.865091746020414 ] ] ] ] } },
{ "type": "Feature", "properties": { "id": 23, "1": "j23" }, "geometry": { "type": "MultiPolygon", "coordinates": [ [ [ [ 39.278556460292705, -6.865163301331484 ], [ 39.278841745481159, -6.864886024441151 ], [ 39.278913817528775, -6.864954598310786 ], [ 39.278808712459345, -6.865067894247666 ], [ 39.278826730471245, -6.865085783077337 ], [ 39.27865856236015, -6.865246782514137 ], [ 39.278556460292705, -6.865163301331484 ] ] ] ] } },
{ "type": "Feature", "properties": { "id": 24, "1": "j24" }, "geometry": { "type": "MultiPolygon", "coordinates": [ [ [ [ 39.279030934606141, -6.865369022790885 ], [ 39.279172075699393, -6.865261689866641 ], [ 39.279244147746994, -6.865372004260656 ], [ 39.279103006653756, -6.865473374221802 ], [ 39.279030934606141, -6.865369022790885 ] ] ] ] } },
{ "type": "Feature", "properties": { "id": 25, "1": "25" }, "geometry": { "type": "MultiPolygon", "coordinates": [ [ [ [ 39.279015919596219, -6.865127523677293 ], [ 39.279103006653756, -6.865070875719323 ], [ 39.279184087707321, -6.865181190157573 ], [ 39.27909099464582, -6.865237838102411 ], [ 39.279015919596219, -6.865127523677293 ] ] ] ] } },
{ "type": "Feature", "properties": { "id": 26, "1": "j26" }, "geometry": { "type": "MultiPolygon", "coordinates": [ [ [ [ 39.278919823532739, -6.865196097512132 ], [ 39.278985889576383, -6.865157338389308 ], [ 39.279051955620041, -6.865261689866641 ], [ 39.278973877568447, -6.86530641192135 ], [ 39.278919823532739, -6.865196097512132 ] ] ] ] } },
{ "type": "Feature", "properties": { "id": 26, "1": "j26" }, "geometry": { "type": "MultiPolygon", "coordinates": [ [ [ [ 39.278523427270869, -6.865216967807727 ], [ 39.278541445282777, -6.865196097512132 ], [ 39.278604508324435, -6.865231875161165 ], [ 39.27857147530262, -6.865264671337087 ], [ 39.278523427270869, -6.865216967807727 ] ] ] ] } },
{ "type": "Feature", "properties": { "id": 27, "1": "j27" }, "geometry": { "type": "MultiPolygon", "coordinates": [ [ [ [ 39.278922826534732, -6.865035098058184 ], [ 39.278982886574404, -6.864975468616976 ], [ 39.279036940610112, -6.86503807953005 ], [ 39.27896486856249, -6.865103671906339 ], [ 39.278973877568447, -6.865121560734667 ], [ 39.278937841544646, -6.865151375447055 ], [ 39.278922826534732, -6.865139449562324 ], [ 39.278904808522825, -6.865157338389308 ], [ 39.278859763493074, -6.865106653377774 ], [ 39.27887778150496, -6.865088764548887 ], [ 39.278844748483138, -6.865050005417319 ], [ 39.278892796514889, -6.865011246282597 ], [ 39.278922826534732, -6.865035098058184 ] ] ] ] } },
{ "type": "Feature", "properties": { "id": 28, "1": "j28" }, "geometry": { "type": "MultiPolygon", "coordinates": [ [ [ [ 39.279790694108051, -6.864859191185129 ], [ 39.27991982319336, -6.864942672421124 ], [ 39.27969760104655, -6.865282560159362 ], [ 39.279559462955291, -6.865181190157573 ], [ 39.279790694108051, -6.864859191185129 ] ] ] ] } },
{ "type": "Feature", "properties": { "id": 29, "1": "j29" }, "geometry": { "type": "MultiPolygon", "coordinates": [ [ [ [ 39.27982072412788, -6.86543461512156 ], [ 39.279970874227075, -6.865276597218679 ], [ 39.280148051344135, -6.865431633652181 ], [ 39.279988892238983, -6.865604558845344 ], [ 39.27982072412788, -6.86543461512156 ] ] ] ] } },
{ "type": "Feature", "properties": { "id": 30, "1": "j30" }, "geometry": { "type": "MultiPolygon", "coordinates": [ [ [ [ 39.279084988641856, -6.864844283820015 ], [ 39.279151054685506, -6.864775709934486 ], [ 39.279229132737079, -6.864865154131041 ], [ 39.279193096713279, -6.864906894750347 ], [ 39.279172075699393, -6.864897950332232 ], [ 39.279148051683507, -6.864921802113499 ], [ 39.279084988641856, -6.864844283820015 ] ] ] ] } },
{ "type": "Feature", "properties": { "id": 31, "1": "j31" }, "geometry": { "type": "MultiPolygon", "coordinates": [ [ [ [ 39.279078982637891, -6.864602784440145 ], [ 39.279199102717243, -6.864716080460775 ], [ 39.279045949616062, -6.864853228239137 ], [ 39.279000904586312, -6.864793598775142 ], [ 39.278976880570426, -6.864730987829903 ], [ 39.278982886574404, -6.864701173091181 ], [ 39.279078982637891, -6.864602784440145 ] ] ] ] } },
{ "type": "Feature", "properties": { "id": 32, "1": "j32" }, "geometry": { "type": "MultiPolygon", "coordinates": [ [ [ [ 39.280138017726308, -6.865065666117064 ], [ 39.280367403388745, -6.865065666117064 ], [ 39.280371427698604, -6.865237470745822 ], [ 39.280142042036168, -6.865257448024209 ], [ 39.280138017726308, -6.865065666117064 ] ] ] ] } },
{ "type": "Feature", "properties": { "id": 33, "1": "j33" }, "geometry": { "type": "MultiPolygon", "coordinates": [ [ [ [ 39.280198382374316, -6.864817947705948 ], [ 39.280339233219664, -6.864805961327948 ], [ 39.280351306149264, -6.864873884132633 ], [ 39.280383500628204, -6.864873884132633 ], [ 39.280383500628204, -6.864873884132633 ], [ 39.280383500628204, -6.864945802385849 ], [ 39.280359354769004, -6.864953793302204 ], [ 39.280367403388745, -6.865017720628201 ], [ 39.280210455303916, -6.865041693373236 ], [ 39.280198382374316, -6.864817947705948 ] ] ] ] } },
{ "type": "Feature", "properties": { "id": 34, "1": "j34" }, "geometry": { "type": "MultiPolygon", "coordinates": [ [ [ [ 39.279880461894798, -6.864430387997634 ], [ 39.28001728843028, -6.864430387997634 ], [ 39.28001728843028, -6.864474338083515 ], [ 39.279888510514532, -6.864486324469868 ], [ 39.279880461894798, -6.864430387997634 ] ] ] ] } },
{ "type": "Feature", "properties": { "id": 35, "1": "j35" }, "geometry": { "type": "MultiPolygon", "coordinates": [ [ [ [ 39.279964972402013, -6.864666120228953 ], [ 39.280033385669746, -6.864674111150001 ], [ 39.28002936135988, -6.864750024893279 ], [ 39.279977045331613, -6.864762011272692 ], [ 39.279928753613206, -6.864746029433408 ], [ 39.279928753613206, -6.864706074832857 ], [ 39.279964972402013, -6.864666120228953 ] ] ] ] } },
{ "type": "Feature", "properties": { "id": 36, "1": "j36" }, "geometry": { "type": "MultiPolygon", "coordinates": [ [ [ [ 39.280146066346028, -6.864350478740181 ], [ 39.28022655254339, -6.864354474203371 ], [ 39.280210455303916, -6.864462351696859 ], [ 39.280138017726308, -6.864462351696859 ], [ 39.280146066346028, -6.864350478740181 ] ] ] ] } },
{ "type": "Feature", "properties": { "id": 36, "1": "j36" }, "geometry": { "type": "MultiPolygon", "coordinates": [ [ [ [ 39.280120122099554, -6.864250933432693 ], [ 39.280162880295414, -6.864250933432693 ], [ 39.280171431934583, -6.864318856163329 ], [ 39.280122972645948, -6.864316026049743 ], [ 39.280120122099554, -6.864250933432693 ] ] ] ] } },
{ "type": "Feature", "properties": { "id": 37, "1": "j37" }, "geometry": { "type": "MultiPolygon", "coordinates": [ [ [ [ 39.279695390687351, -6.864197161264065 ], [ 39.279780907079065, -6.86426225388847 ], [ 39.27964123030592, -6.864457531708275 ], [ 39.279550012821417, -6.864392439110576 ], [ 39.279695390687351, -6.864197161264065 ] ] ] ] } },
{ "type": "Feature", "properties": { "id": 37, "1": "j37" }, "geometry": { "type": "MultiPolygon", "coordinates": [ [ [ [ 39.279302015285431, -6.864497153285126 ], [ 39.279390382223539, -6.86444904136995 ], [ 39.279441692058583, -6.864536774858676 ], [ 39.279344773481284, -6.864596207212819 ], [ 39.279302015285431, -6.864497153285126 ] ] ] ] } },
{ "type": "Feature", "properties": { "id": 38, "1": "j38" }, "geometry": { "type": "MultiPolygon", "coordinates": [ [ [ [ 39.279495852439993, -6.864624508331229 ], [ 39.279495852439993, -6.864624508331229 ], [ 39.279532909543079, -6.864573566316878 ], [ 39.279612724842018, -6.864638658889803 ], [ 39.279644080852307, -6.864596207212819 ], [ 39.279607023749222, -6.864573566316878 ], [ 39.279652632491484, -6.864514133959906 ], [ 39.279675436862604, -6.8645424350832 ], [ 39.279703942326506, -6.864516964072312 ], [ 39.27973244779043, -6.864545265195436 ], [ 39.279721045604859, -6.864573566316878 ], [ 39.279740999429599, -6.864579226540962 ], [ 39.279715344512077, -6.864621678219465 ], [ 39.27969254014095, -6.864613187884067 ], [ 39.279652632491484, -6.864666960005692 ], [ 39.279678287409006, -6.864683940674415 ], [ 39.279646931398702, -6.864732052565846 ], [ 39.279624127027574, -6.864709411676365 ], [ 39.279581368831721, -6.864763183787118 ], [ 39.279595621563672, -6.864782994563233 ], [ 39.27956996664615, -6.864825446223557 ], [ 39.279493001893613, -6.864763183787118 ], [ 39.279487300800817, -6.86477167411984 ], [ 39.279475898615267, -6.864760353676177 ], [ 39.279512955718339, -6.864715071898838 ], [ 39.279532909543079, -6.864732052565846 ], [ 39.279572817192545, -6.864683940674415 ], [ 39.279498702986388, -6.864624508331229 ], [ 39.279495852439993, -6.864624508331229 ] ] ] ] } },
{ "type": "Feature", "properties": { "id": 39, "1": "j39" }, "geometry": { "type": "MultiPolygon", "coordinates": [ [ [ [ 39.279384681130757, -6.864304705595243 ], [ 39.279464496429696, -6.864265084002374 ], [ 39.279518656811121, -6.864369798204944 ], [ 39.279487300800817, -6.864412249902124 ], [ 39.279487300800817, -6.86442640046701 ], [ 39.27950725462555, -6.864443381144315 ], [ 39.279504404079169, -6.864485832834934 ], [ 39.279475898615267, -6.864505643622591 ], [ 39.279433140419407, -6.864497153285126 ], [ 39.279430289873012, -6.86444904136995 ], [ 39.279450243697745, -6.864415080015135 ], [ 39.279384681130757, -6.864304705595243 ] ] ] ] } },
{ "type": "Feature", "properties": { "id": 40, "1": "j40" }, "geometry": { "type": "MultiPolygon", "coordinates": [ [ [ [ 39.279256406543183, -6.864802805338524 ], [ 39.279259257089571, -6.864964121620899 ], [ 39.279270659275134, -6.864992422717429 ], [ 39.279253555996782, -6.864981102279018 ], [ 39.279316268017382, -6.864969781840339 ], [ 39.279319118563777, -6.864924500082923 ], [ 39.279407485501885, -6.864913179642897 ], [ 39.279444542604963, -6.864938650632578 ], [ 39.279438841512182, -6.864952801181811 ], [ 39.27947874916164, -6.864952801181811 ], [ 39.27947874916164, -6.864932990412768 ], [ 39.279515806264733, -6.864932990412768 ], [ 39.279541461182248, -6.864890538762036 ], [ 39.279561415006974, -6.864901859202599 ], [ 39.279564265553368, -6.86488487854165 ], [ 39.279501553532768, -6.864816955891794 ], [ 39.279458795336922, -6.864845256997079 ], [ 39.279433140419407, -6.864845256997079 ], [ 39.279481599708042, -6.864805635449212 ], [ 39.279390382223539, -6.864686770785813 ], [ 39.279256406543183, -6.864802805338524 ] ] ] ] } },
{ "type": "Feature", "properties": { "id": 41, "1": "j41" }, "geometry": { "type": "MultiPolygon", "coordinates": [ [ [ [ 39.279158098252026, -6.86454073075233 ], [ 39.279185783535389, -6.864496064665349 ], [ 39.279213468818739, -6.864484039179676 ], [ 39.279213468818739, -6.864484039179676 ], [ 39.279272300045889, -6.864492628812329 ], [ 39.279306906650099, -6.864542448678669 ], [ 39.279306906650099, -6.864557910015436 ], [ 39.279327670612616, -6.864581960982747 ], [ 39.279310367310515, -6.864643806321676 ], [ 39.279277491036524, -6.864619755357493 ], [ 39.279232502451059, -6.864635216691751 ], [ 39.279185783535389, -6.864616319505367 ], [ 39.279158098252026, -6.86454073075233 ] ] ] ] } },
{ "type": "Feature", "properties": { "id": 42, "1": "j42" }, "geometry": { "type": "MultiPolygon", "coordinates": [ [ [ [ 39.279600942930728, -6.864086429048497 ], [ 39.279703464049376, -6.863981071294548 ], [ 39.279759221148993, -6.864034643036759 ], [ 39.279656700030344, -6.864147143675771 ], [ 39.279600942930728, -6.864086429048497 ] ] ] ] } },
{ "type": "Feature", "properties": { "id": 43, "1": "j43" }, "geometry": { "type": "MultiPolygon", "coordinates": [ [ [ [ 39.279852749187057, -6.863936428171431 ], [ 39.279908506286681, -6.863904285120199 ], [ 39.279933686912315, -6.863956071146119 ], [ 39.279872533964337, -6.863988214193856 ], [ 39.279852749187057, -6.863936428171431 ] ] ] ] } },
{ "type": "Feature", "properties": { "id": 44, "1": "j44" }, "geometry": { "type": "MultiPolygon", "coordinates": [ [ [ [ 39.279523602437699, -6.864184643882869 ], [ 39.279575762305086, -6.864134643606084 ], [ 39.279654901414212, -6.864213215467243 ], [ 39.279608137395194, -6.864266787183325 ], [ 39.279523602437699, -6.864184643882869 ] ] ] ] } },
{ "type": "Feature", "properties": { "id": 45, "1": "j45" }, "geometry": { "type": "MultiPolygon", "coordinates": [ [ [ [ 39.279466046721964, -6.864240001326037 ], [ 39.279507414892663, -6.864202501123302 ], [ 39.279597345698484, -6.864293573039101 ], [ 39.279557776143918, -6.864322144616939 ], [ 39.279466046721964, -6.864240001326037 ] ] ] ] } },
{ "type": "Feature", "properties": { "id": 46, "1": "j46" }, "geometry": { "type": "MultiPolygon", "coordinates": [ [ [ [ 39.279122511043667, -6.86377928434476 ], [ 39.279201650152814, -6.863702498137858 ], [ 39.279226830778441, -6.863732855476953 ], [ 39.279149490285427, -6.863809641678959 ], [ 39.279122511043667, -6.86377928434476 ] ] ] ] } },
{ "type": "Feature", "properties": { "id": 47, "1": "j47" }, "geometry": { "type": "MultiPolygon", "coordinates": [ [ [ [ 39.279181865375534, -6.863809641678959 ], [ 39.279322157432624, -6.863698926686075 ], [ 39.279449859176914, -6.863857856264582 ], [ 39.279305969887574, -6.863970356945381 ], [ 39.279181865375534, -6.863809641678959 ] ] ] ] } },
{ "type": "Feature", "properties": { "id": 48, "1": "j48" }, "geometry": { "type": "MultiPolygon", "coordinates": [ [ [ [ 39.279482234267014, -6.863904285120199 ], [ 39.279581158153427, -6.86379535587487 ], [ 39.279620727707993, -6.863831070384283 ], [ 39.27951640797324, -6.863945356796391 ], [ 39.279482234267014, -6.863904285120199 ] ] ] ] } },
{ "type": "Feature", "properties": { "id": 49, "1": "j49" }, "geometry": { "type": "MultiPolygon", "coordinates": [ [ [ [ 39.279048767782882, -6.863852499088643 ], [ 39.279126108275896, -6.863832856109683 ], [ 39.279190858456111, -6.864063214630137 ], [ 39.279115316579208, -6.864088214772937 ], [ 39.279048767782882, -6.863852499088643 ] ] ] ] } },
{ "type": "Feature", "properties": { "id": 50, "1": "j50" }, "geometry": { "type": "MultiPolygon", "coordinates": [ [ [ [ 39.279230428010671, -6.864141786503089 ], [ 39.279313164352054, -6.864134643606084 ], [ 39.279316761584283, -6.864166786641761 ], [ 39.279327553280986, -6.864165000917614 ], [ 39.279334747745452, -6.864202501123302 ], [ 39.279334747745452, -6.864202501123302 ], [ 39.279237622475151, -6.864209644019289 ], [ 39.279230428010671, -6.864141786503089 ] ] ] ] } },
{ "type": "Feature", "properties": { "id": 50, "1": "j50" }, "geometry": { "type": "MultiPolygon", "coordinates": [ [ [ [ 39.278626092995459, -6.864331073234663 ], [ 39.278949843896477, -6.864006071441663 ], [ 39.279000205147746, -6.864061428905599 ], [ 39.278957038360936, -6.864113214914425 ], [ 39.279018191308907, -6.864170358090035 ], [ 39.278741204426943, -6.864448930972897 ], [ 39.278626092995459, -6.864331073234663 ] ] ] ] } },
{ "type": "Feature", "properties": { "id": 51, "1": "51" }, "geometry": { "type": "MultiPolygon", "coordinates": [ [ [ [ 39.279097330418047, -6.864223929810941 ], [ 39.279111719346979, -6.864202501123302 ], [ 39.279131504124265, -6.864184643882869 ], [ 39.27916208059824, -6.864184643882869 ], [ 39.279185462607764, -6.864186429606941 ], [ 39.279212441849509, -6.86420607257131 ], [ 39.279221434930101, -6.864241787049904 ], [ 39.279216039081739, -6.864266787183325 ], [ 39.27919805292057, -6.864295358762767 ], [ 39.279167476446595, -6.864306073104617 ], [ 39.279138698588731, -6.864306073104617 ], [ 39.279108122114749, -6.864277501525814 ], [ 39.279099129034158, -6.864263215735773 ], [ 39.279097330418047, -6.864223929810941 ] ] ] ] } },
{ "type": "Feature", "properties": { "id": 52, "1": "j52" }, "geometry": { "type": "MultiPolygon", "coordinates": [ [ [ [ 39.278730400206804, -6.864521286135708 ], [ 39.279005865077337, -6.864234121326064 ], [ 39.279143597512594, -6.864357191979986 ], [ 39.278904861291466, -6.864610170446436 ], [ 39.278863541560895, -6.864571426005338 ], [ 39.278824517370907, -6.864610170446436 ], [ 39.278730400206804, -6.864521286135708 ] ] ] ] } },
{ "type": "Feature", "properties": { "id": 54, "1": "j54" }, "geometry": { "type": "MultiPolygon", "coordinates": [ [ [ [ 39.278698262638564, -6.863673465722187 ], [ 39.278771719937389, -6.863595976684341 ], [ 39.278941589940885, -6.86374867565862 ], [ 39.278872723723239, -6.863833001936853 ], [ 39.278698262638564, -6.863673465722187 ] ] ] ] } },
{ "type": "Feature", "properties": { "id": 55, "1": "j55" }, "geometry": { "type": "MultiPolygon", "coordinates": [ [ [ [ 39.278549052500374, -6.863766908368692 ], [ 39.278656942907993, -6.863666628454648 ], [ 39.278801561965025, -6.86382388558317 ], [ 39.27868678493563, -6.863921886376118 ], [ 39.278549052500374, -6.863766908368692 ] ] ] ] } },
{ "type": "Feature", "properties": { "id": 55, "1": "j55" }, "geometry": { "type": "MultiPolygon", "coordinates": [ [ [ [ 39.278235046022985, -6.864044891778357 ], [ 39.278510443099016, -6.86378019479882 ], [ 39.278686228466718, -6.863960537811847 ], [ 39.278645211880921, -6.863998351660753 ], [ 39.278498724074524, -6.863867457555592 ], [ 39.278475286025497, -6.863896545137626 ], [ 39.278621773831894, -6.864039074263905 ], [ 39.278709666515745, -6.863960537811847 ], [ 39.278738964077029, -6.863989625388196 ], [ 39.278771191394434, -6.863960537811847 ], [ 39.278815137736352, -6.863998351660753 ], [ 39.278498724074524, -6.864309588610691 ], [ 39.278235046022985, -6.864044891778357 ] ] ] ] } },
{ "type": "Feature", "properties": { "id": 56, "1": "j56" }, "geometry": { "type": "MultiPolygon", "coordinates": [ [ [ [ 39.277138302979658, -6.865037757846085 ], [ 39.277138302979658, -6.865037757846085 ], [ 39.277235740727463, -6.864890546051244 ], [ 39.277540763242371, -6.865079818350533 ], [ 39.2774306162231, -6.865243854282359 ], [ 39.277138302979658, -6.865037757846085 ] ] ] ] } },
{ "type": "Feature", "properties": { "id": 57, "1": "j57" }, "geometry": { "type": "MultiPolygon", "coordinates": [ [ [ [ 39.277311996356204, -6.864301698416531 ], [ 39.277311996356204, -6.864301698416531 ], [ 39.277447561918379, -6.864112425807796 ], [ 39.278159281119798, -6.864722303944242 ], [ 39.277938987081257, -6.864936812620244 ], [ 39.277837312909618, -6.864840073425388 ], [ 39.277735638737987, -6.864941018671749 ], [ 39.27742214337546, -6.864638182868435 ], [ 39.277519581123272, -6.86452041333733 ], [ 39.277311996356204, -6.864301698416531 ] ] ] ] } },
{ "type": "Feature", "properties": { "id": 58, "1": "j58" }, "geometry": { "type": "MultiPolygon", "coordinates": [ [ [ [ 39.277098022710462, -6.865230987043666 ], [ 39.277129563872805, -6.865185437929971 ], [ 39.277204115711044, -6.865233833863126 ], [ 39.277175441927113, -6.865279382972187 ], [ 39.277098022710462, -6.865230987043666 ] ] ] ] } },
{ "type": "Feature", "properties": { "id": 59, "1": null }, "geometry": { "type": "MultiPolygon", "coordinates": [ [ [ [ 39.27699192970988, -6.865185437929971 ], [ 39.27699192970988, -6.865185437929971 ], [ 39.277026338250614, -6.865128501531725 ], [ 39.277092287953664, -6.86516551019136 ], [ 39.277055012034538, -6.865225293404692 ], [ 39.27699192970988, -6.865185437929971 ] ] ] ] } },
{ "type": "Feature", "properties": { "id": 60, "1": "j60" }, "geometry": { "type": "MultiPolygon", "coordinates": [ [ [ [ 39.277060746791342, -6.864863747190394 ], [ 39.277066481548125, -6.864897909049165 ], [ 39.276980460196299, -6.864929224084218 ], [ 39.276974725439516, -6.864900755870619 ], [ 39.277060746791342, -6.864863747190394 ] ] ] ] } },
{ "type": "Feature", "properties": { "id": 61, "1": "j61" }, "geometry": { "type": "MultiPolygon", "coordinates": [ [ [ [ 39.276974725439516, -6.864650235517521 ], [ 39.277135298629588, -6.864587605408642 ], [ 39.277209850467841, -6.864795423465496 ], [ 39.277032073007398, -6.86483527897288 ], [ 39.276974725439516, -6.864650235517521 ] ] ] ] } },
{ "type": "Feature", "properties": { "id": 63, "1": "j63" }, "geometry": { "type": "MultiPolygon", "coordinates": [ [ [ [ 39.277298739198066, -6.864473732462292 ], [ 39.277347484630766, -6.864433876924632 ], [ 39.277433505982586, -6.86452212846782 ], [ 39.277387627928277, -6.864561983998088 ], [ 39.277298739198066, -6.864473732462292 ] ] ] ] } },
{ "type": "Feature", "properties": { "id": 64, "1": "j64" }, "geometry": { "type": "MultiPolygon", "coordinates": [ [ [ [ 39.276722396140819, -6.865270842514572 ], [ 39.276693722356882, -6.865376174814466 ], [ 39.276659313816147, -6.865373327995858 ], [ 39.276693722356882, -6.865259455237508 ], [ 39.276722396140819, -6.865270842514572 ] ] ] ] } },
{ "type": "Feature", "properties": { "id": 65, "1": "j65" }, "geometry": { "type": "MultiPolygon", "coordinates": [ [ [ [ 39.276277952489714, -6.865316391620088 ], [ 39.2763754433551, -6.865344859808824 ], [ 39.276369708598324, -6.865373327995858 ], [ 39.276269350354518, -6.865342012990026 ], [ 39.276277952489714, -6.865316391620088 ] ] ] ] } },
{ "type": "Feature", "properties": { "id": 66, "1": "j66" }, "geometry": { "type": "MultiPolygon", "coordinates": [ [ [ [ 39.276481536355703, -6.865219599765651 ], [ 39.27657329246432, -6.865265148876073 ], [ 39.276561822950747, -6.865285076610514 ], [ 39.276467199463724, -6.865242374321406 ], [ 39.276481536355703, -6.865219599765651 ] ] ] ] } },
{ "type": "Feature", "properties": { "id": 67, "1": "j67" }, "geometry": { "type": "MultiPolygon", "coordinates": [ [ [ [ 39.276986345487003, -6.864495403734594 ], [ 39.277167019376812, -6.864545696838433 ], [ 39.277156888130655, -6.864582578444541 ], [ 39.27706908399729, -6.864560784768551 ], [ 39.27706908399729, -6.864582578444541 ], [ 39.276969460076735, -6.864552402585211 ], [ 39.276986345487003, -6.864495403734594 ] ] ] ] } },
{ "type": "Feature", "properties": { "id": 67, "1": "j67" }, "geometry": { "type": "MultiPolygon", "coordinates": [ [ [ [ 39.277015050684447, -6.864440081314227 ], [ 39.277072461079342, -6.864463551432745 ], [ 39.277053887128055, -6.864515520976767 ], [ 39.27699647673316, -6.864473610054612 ], [ 39.277011673602395, -6.864438404877148 ], [ 39.277015050684447, -6.864440081314227 ] ] ] ] } },
{ "type": "Feature", "properties": { "id": 68, "1": "j69" }, "geometry": { "type": "MultiPolygon", "coordinates": [ [ [ [ 39.277208633434732, -6.863768349481921 ], [ 39.277329806721106, -6.863607942986668 ], [ 39.277455731901071, -6.863699940836144 ], [ 39.277336934561482, -6.863853270545759 ], [ 39.277208633434732, -6.863768349481921 ] ] ] ] } },
{ "type": "Feature", "properties": { "id": 69, "1": "j69" }, "geometry": { "type": "MultiPolygon", "coordinates": [ [ [ [ 39.277593536814983, -6.86368342840293 ], [ 39.277686198739858, -6.863801374341878 ], [ 39.277410588912026, -6.863997164536009 ], [ 39.277322678880722, -6.863883936481754 ], [ 39.277593536814983, -6.86368342840293 ] ] ] ] } },
{ "type": "Feature", "properties": { "id": 70, "1": "j70" }, "geometry": { "type": "MultiPolygon", "coordinates": [ [ [ [ 39.277771732824363, -6.863803733260361 ], [ 39.277840635281322, -6.863732965700849 ], [ 39.277973688301657, -6.863860347300394 ], [ 39.277895282057528, -6.863933473758804 ], [ 39.277771732824363, -6.863803733260361 ] ] ] ] } },
{ "type": "Feature", "properties": { "id": 71, "1": "j71" }, "geometry": { "type": "MultiPolygon", "coordinates": [ [ [ [ 39.278168515938575, -6.864044342883997 ], [ 39.278094861588031, -6.864115110397214 ], [ 39.277921417472228, -6.863952345101085 ], [ 39.277997447769572, -6.86387685972747 ], [ 39.278168515938575, -6.864044342883997 ] ] ] ] } },
{ "type": "Feature", "properties": { "id": 72, "1": "j72" }, "geometry": { "type": "MultiPolygon", "coordinates": [ [ [ [ 39.277881026376775, -6.864454794314182 ], [ 39.277930921259404, -6.86440289817589 ], [ 39.278016455343895, -6.86449017804159 ], [ 39.277964184514488, -6.864532638511009 ], [ 39.277881026376775, -6.864454794314182 ] ] ] ] } },
{ "type": "Feature", "properties": { "id": 73, "1": "j73" }, "geometry": { "type": "MultiPolygon", "coordinates": [ [ [ [ 39.278106741321992, -6.86420239031569 ], [ 39.278206531087228, -6.864289670218159 ], [ 39.278037838865032, -6.864466588890275 ], [ 39.277930921259404, -6.864374591188982 ], [ 39.278106741321992, -6.86420239031569 ] ] ] ] } },
{ "type": "Feature", "properties": { "id": 74, "1": "j74" }, "geometry": { "type": "MultiPolygon", "coordinates": [ [ [ [ 39.277655311431566, -6.864152853066625 ], [ 39.277835883387723, -6.863983011030699 ], [ 39.278030711024655, -6.864171724400208 ], [ 39.277840635281322, -6.864346284200392 ], [ 39.277655311431566, -6.864152853066625 ] ] ] ] } },
{ "type": "Feature", "properties": { "id": 75, "1": "j75" }, "geometry": { "type": "MultiPolygon", "coordinates": [ [ [ [ 39.278192275406475, -6.864329771789603 ], [ 39.278254050023065, -6.864379309020252 ], [ 39.278273057597403, -6.864365155526306 ], [ 39.278315824639662, -6.864405257091388 ], [ 39.27829206517174, -6.864431205161114 ], [ 39.278363343575492, -6.864497254786758 ], [ 39.278265929757026, -6.864601047037105 ], [ 39.278197027300074, -6.864534997425864 ], [ 39.278178019725736, -6.864551509829534 ], [ 39.278130500789899, -6.864506690446814 ], [ 39.278149508364237, -6.864483101296318 ], [ 39.2781019894284, -6.864428846245743 ], [ 39.278192275406475, -6.864329771789603 ] ] ] ] } },
{ "type": "Feature", "properties": { "id": 76, "1": "j76" }, "geometry": { "type": "MultiPolygon", "coordinates": [ [ [ [ 39.277919041525443, -6.863695222998143 ], [ 39.278011703450318, -6.863591430550263 ], [ 39.2781019894284, -6.863678710564765 ], [ 39.278011703450318, -6.863780144075027 ], [ 39.277919041525443, -6.863695222998143 ] ] ] ] } },
{ "type": "Feature", "properties": { "id": 76, "1": "j76" }, "geometry": { "type": "MultiPolygon", "coordinates": [ [ [ [ 39.278016455343895, -6.863810810015732 ], [ 39.278075854013693, -6.863744760294832 ], [ 39.278111493215562, -6.863770708400563 ], [ 39.278185147566113, -6.863711735430945 ], [ 39.278308696799279, -6.863822604607785 ], [ 39.278239794342326, -6.863891013235932 ], [ 39.278211282980813, -6.863857988382194 ], [ 39.278132876736699, -6.863926397005256 ], [ 39.278016455343895, -6.863810810015732 ] ] ] ] } },
{ "type": "Feature", "properties": { "id": 76, "1": "j76" }, "geometry": { "type": "MultiPolygon", "coordinates": [ [ [ [ 39.278239794342326, -6.863640967857756 ], [ 39.278363343575492, -6.863770708400563 ], [ 39.278332456267194, -6.863794297586367 ], [ 39.278208907034021, -6.863669274888296 ], [ 39.278239794342326, -6.863640967857756 ] ] ] ] } },
{ "type": "Feature", "properties": { "id": 78, "1": "j78" }, "geometry": { "type": "MultiPolygon", "coordinates": [ [ [ [ 39.278294441118526, -6.863591430550263 ], [ 39.27845362955356, -6.863747119213595 ], [ 39.278403734670952, -6.863791938667839 ], [ 39.278268305703826, -6.863648044615548 ], [ 39.278294441118526, -6.863591430550263 ] ] ] ] } },
{ "type": "Feature", "properties": { "id": 79, "1": "j79" }, "geometry": { "type": "MultiPolygon", "coordinates": [ [ [ [ 39.277042317159314, -6.86442176949956 ], [ 39.27707558041439, -6.864327412873727 ], [ 39.277113595563065, -6.864332130705465 ], [ 39.277092212041929, -6.864303823714346 ], [ 39.277113595563065, -6.864280234553799 ], [ 39.277142106924565, -6.864292029134219 ], [ 39.277149234764941, -6.864280234553799 ], [ 39.277177746126441, -6.864273157805403 ], [ 39.277208633434732, -6.864282593469903 ], [ 39.27722764100907, -6.864294388050268 ], [ 39.277196753700764, -6.864431205161114 ], [ 39.277180122073219, -6.864419410584142 ], [ 39.277180122073219, -6.864433564076474 ], [ 39.277189625860402, -6.864445358653096 ], [ 39.277189625860402, -6.864527920681259 ], [ 39.27716349044568, -6.864516126106686 ], [ 39.277151610711719, -6.864516126106686 ], [ 39.277106467722689, -6.864520843936551 ], [ 39.277094587988728, -6.86449017804159 ], [ 39.277089836095143, -6.864440640822481 ], [ 39.277042317159314, -6.86442176949956 ] ] ] ] } },
{ "type": "Feature", "properties": { "id": 80, "1": "j80" }, "geometry": { "type": "MultiPolygon", "coordinates": [ [ [ [ 39.277180122073219, -6.864178801150109 ], [ 39.277192001807194, -6.864152853066625 ], [ 39.277222889115471, -6.864138699565945 ], [ 39.277260904264146, -6.864145776316337 ], [ 39.277279911838484, -6.864167006566884 ], [ 39.277289415625646, -6.86420474923218 ], [ 39.277282287785269, -6.864223620563707 ], [ 39.277241896689809, -6.864261363224515 ], [ 39.277203881541148, -6.864251927559595 ], [ 39.277182498020018, -6.864235415145533 ], [ 39.277175370179634, -6.864218902730896 ], [ 39.277177746126441, -6.864178801150109 ], [ 39.277180122073219, -6.864178801150109 ] ] ] ] } },
{ "type": "Feature", "properties": { "id": 81, "1": "j81" }, "geometry": { "type": "MultiPolygon", "coordinates": [ [ [ [ 39.277115254615751, -6.863322232718034 ], [ 39.277299973511127, -6.863149026101319 ], [ 39.277377965933624, -6.863222384205502 ], [ 39.277193247038255, -6.863401703968141 ], [ 39.277115254615751, -6.863322232718034 ] ] ] ] } },
{ "type": "Feature", "properties": { "id": 82, "1": "j82" }, "geometry": { "type": "MultiPolygon", "coordinates": [ [ [ [ 39.277224033520802, -6.863517854232896 ], [ 39.277299973511127, -6.863432269830037 ], [ 39.277423119441366, -6.863540269193003 ], [ 39.277377965933624, -6.863589174556854 ], [ 39.277334864858027, -6.863548420087329 ], [ 39.277297921078961, -6.86358102366323 ], [ 39.277224033520802, -6.863517854232896 ] ] ] ] } },
{ "type": "Feature", "properties": { "id": 83, "1": "j83" }, "geometry": { "type": "MultiPolygon", "coordinates": [ [ [ [ 39.277817186418169, -6.863450609346228 ], [ 39.277907493433673, -6.863348723136211 ], [ 39.277989590720509, -6.863411892588992 ], [ 39.277895178840652, -6.863519891956584 ], [ 39.277817186418169, -6.863450609346228 ] ] ] ] } },
{ "type": "Feature", "properties": { "id": 84, "1": "j84" }, "geometry": { "type": "MultiPolygon", "coordinates": [ [ [ [ 39.277497006999525, -6.863183667429701 ], [ 39.277581156718526, -6.863098082966761 ], [ 39.277675568598383, -6.863185705154822 ], [ 39.277587314015037, -6.863275365051496 ], [ 39.277497006999525, -6.863183667429701 ] ] ] ] } },
{ "type": "Feature", "properties": { "id": 85, "1": "administrative block" }, "geometry": { "type": "MultiPolygon", "coordinates": [ [ [ [ 39.277546265371612, -6.863375213552913 ], [ 39.277613995633246, -6.863287591399732 ], [ 39.277702250216599, -6.863352798585031 ], [ 39.277722774538297, -6.863342609962913 ], [ 39.277755613453039, -6.863365024931278 ], [ 39.27767351616621, -6.863473024309507 ], [ 39.277546265371612, -6.863375213552913 ] ] ] ] } },
{ "type": "Feature", "properties": { "id": 86, "1": "j86" }, "geometry": { "type": "MultiPolygon", "coordinates": [ [ [ [ 39.277722774538297, -6.863100120692247 ], [ 39.277815133985996, -6.863006385310818 ], [ 39.277747403724362, -6.862953404434889 ], [ 39.277782295071255, -6.862896348100372 ], [ 39.277919808026709, -6.863014536214282 ], [ 39.277784347503435, -6.86315717700234 ], [ 39.277722774538297, -6.863100120692247 ] ] ] ] } },
{ "type": "Feature", "properties": { "id": 87, "1": "j87" }, "geometry": { "type": "MultiPolygon", "coordinates": [ [ [ [ 39.278527327949256, -6.863354836309426 ], [ 39.278658683608178, -6.86349136382413 ], [ 39.278430863637226, -6.863705324775862 ], [ 39.278309770139138, -6.863570835046 ], [ 39.278527327949256, -6.863354836309426 ] ] ] ] } },
{ "type": "Feature", "properties": { "id": 88, "1": "j88" }, "geometry": { "type": "MultiPolygon", "coordinates": [ [ [ [ 39.277797075454146, -6.863278380674305 ], [ 39.277830614563634, -6.863241833239368 ], [ 39.27791568937797, -6.863309242950512 ], [ 39.277882150268482, -6.863349851205633 ], [ 39.277797075454146, -6.863278380674305 ] ] ] ] } },
{ "type": "Feature", "properties": { "id": 89, "1": "j89" }, "geometry": { "type": "MultiPolygon", "coordinates": [ [ [ [ 39.277844521023681, -6.863215031785294 ], [ 39.277897692782631, -6.863128942255946 ], [ 39.2779549546769, -6.863164677534169 ], [ 39.27790096489089, -6.863251579222291 ], [ 39.277844521023681, -6.863215031785294 ] ] ] ] } },
{ "type": "Feature", "properties": { "id": 90, "1": "j90" }, "geometry": { "type": "MultiPolygon", "coordinates": [ [ [ [ 39.278110388695673, -6.863508984683923 ], [ 39.278177206798432, -6.863438499213756 ], [ 39.278279522018252, -6.863533861906199 ], [ 39.278210615849801, -6.863603310811496 ], [ 39.278110388695673, -6.863508984683923 ] ] ] ] } },
{ "type": "Feature", "properties": { "id": 91, "1": "j91" }, "geometry": { "type": "MultiPolygon", "coordinates": [ [ [ [ 39.278230452474055, -6.863387708206722 ], [ 39.278354692383857, -6.863262285492673 ], [ 39.278460139702254, -6.863368013733151 ], [ 39.278307710905359, -6.863525569498917 ], [ 39.278245068934034, -6.863462339888659 ], [ 39.278271169755421, -6.863432279907062 ], [ 39.278230452474055, -6.863387708206722 ] ] ] ] } },
{ "type": "Feature", "properties": { "id": 92, "1": "j92" }, "geometry": { "type": "MultiPolygon", "coordinates": [ [ [ [ 39.278602150763653, -6.863283321564412 ], [ 39.278602150763653, -6.863283321564412 ], [ 39.278744649493667, -6.86324831679564 ], [ 39.278779906911389, -6.86338541879196 ], [ 39.278637408181396, -6.863427716208386 ], [ 39.278602150763653, -6.863283321564412 ] ] ] ] } },
{ "type": "Feature", "properties": { "id": 93, "1": "j93" }, "geometry": { "type": "MultiPolygon", "coordinates": [ [ [ [ 39.278578645818513, -6.863172473121136 ], [ 39.278716737371283, -6.863149136603474 ], [ 39.278724082666656, -6.863226438813852 ], [ 39.278591867350158, -6.86324539973146 ], [ 39.278578645818513, -6.863172473121136 ] ] ] ] } },
{ "type": "Feature", "properties": { "id": 94, "1": "j94" }, "geometry": { "type": "MultiPolygon", "coordinates": [ [ [ [ 39.278825447742641, -6.863136009811784 ], [ 39.278846014569652, -6.863219146153032 ], [ 39.278762278202535, -6.863241024135156 ], [ 39.278741711375517, -6.863153512200622 ], [ 39.278825447742641, -6.863136009811784 ] ] ] ] } },
{ "type": "Feature", "properties": { "id": 95, "1": "j95" }, "geometry": { "type": "MultiPolygon", "coordinates": [ [ [ [ 39.278979698945221, -6.863292072756202 ], [ 39.279023770717387, -6.863226438813852 ], [ 39.279111914261719, -6.863284780096389 ], [ 39.279067842489546, -6.863351872562465 ], [ 39.278979698945221, -6.863292072756202 ] ] ] ] } },
{ "type": "Feature", "properties": { "id": 96, "1": "j96" }, "geometry": { "type": "MultiPolygon", "coordinates": [ [ [ [ 39.279072249666768, -6.863370833475081 ], [ 39.279154516974806, -6.863274570372459 ], [ 39.279345494654201, -6.863445218586498 ], [ 39.279250005814504, -6.863537106061026 ], [ 39.279072249666768, -6.863370833475081 ] ] ] ] } },
{ "type": "Feature", "properties": { "id": 95, "1": "j95" }, "geometry": { "type": "MultiPolygon", "coordinates": [ [ [ [ 39.278738773257381, -6.863503559842221 ], [ 39.278919467523252, -6.863300823947831 ], [ 39.279041399426255, -6.863407296766442 ], [ 39.279035523189968, -6.863416047955955 ], [ 39.279116321438927, -6.863487515997612 ], [ 39.279019363540165, -6.863593988774463 ], [ 39.279006142008519, -6.863577944932899 ], [ 39.278945910586557, -6.863637744703251 ], [ 39.27896500835449, -6.863656705604478 ], [ 39.278969415531712, -6.863658164135309 ], [ 39.279131012029644, -6.863481681872162 ], [ 39.279169207565531, -6.86351960368629 ], [ 39.278984106122429, -6.863720880956867 ], [ 39.278738773257381, -6.863503559842221 ] ] ] ] } },
{ "type": "Feature", "properties": { "id": 96, "1": "j96" }, "geometry": { "type": "MultiPolygon", "coordinates": [ [ [ [ 39.279178021919968, -6.863537106061026 ], [ 39.279222093692134, -6.863577944932899 ], [ 39.279189774392549, -6.863618783801268 ], [ 39.279142764502225, -6.863569193746365 ], [ 39.279178021919968, -6.863537106061026 ] ] ] ] } },
{ "type": "Feature", "properties": { "id": 97, "1": "j97" }, "geometry": { "type": "MultiPolygon", "coordinates": [ [ [ [ 39.277597336269551, -6.862943273842667 ], [ 39.277693854711664, -6.86271055138363 ], [ 39.277786433625522, -6.862747708758671 ], [ 39.277752947635399, -6.862829846103732 ], [ 39.277715522117042, -6.862814200896242 ], [ 39.277703703532289, -6.862831801754633 ], [ 39.277737189522412, -6.862839624358154 ], [ 39.277685975655153, -6.862974564248652 ], [ 39.277597336269551, -6.862943273842667 ] ] ] ] } },
{ "type": "Feature", "properties": { "id": 98, "1": "j98" }, "geometry": { "type": "MultiPolygon", "coordinates": [ [ [ [ 39.278018865792262, -6.863099725852019 ], [ 39.278077958715997, -6.863146661444797 ], [ 39.278018865792262, -6.863211197877313 ], [ 39.277977500745635, -6.863179907486886 ], [ 39.278018865792262, -6.863099725852019 ] ] ] ] } },
{ "type": "Feature", "properties": { "id": 99, "1": "j99" }, "geometry": { "type": "MultiPolygon", "coordinates": [ [ [ [ 39.278369483806472, -6.863044967654594 ], [ 39.278397060504211, -6.862992165101113 ], [ 39.278460092956202, -6.863025411153987 ], [ 39.278436455786718, -6.863074302404 ], [ 39.278369483806472, -6.863044967654594 ] ] ] ] } },
{ "type": "Feature", "properties": { "id": 100, "1": "j100" }, "geometry": { "type": "MultiPolygon", "coordinates": [ [ [ [ 39.278635401963321, -6.862955007745152 ], [ 39.278737829697796, -6.862966741647346 ], [ 39.278739799461931, -6.862951096444356 ], [ 39.27880677144217, -6.862962830346647 ], [ 39.278796922621545, -6.863048878954619 ], [ 39.278625553142682, -6.863027366804085 ], [ 39.278635401963321, -6.862955007745152 ] ] ] ] } },
{ "type": "Feature", "properties": { "id": 101, "1": "j101" }, "geometry": { "type": "MultiPolygon", "coordinates": [ [ [ [ 39.278068109895379, -6.862829846103732 ], [ 39.278204023619971, -6.862941318192225 ], [ 39.278146900460371, -6.863009765952924 ], [ 39.278010986735751, -6.862892426928556 ], [ 39.278068109895379, -6.862829846103732 ] ] ] ] } },
{ "type": "Feature", "properties": { "id": 102, "1": "j102" }, "geometry": { "type": "MultiPolygon", "coordinates": [ [ [ [ 39.278117353998496, -6.863003899002392 ], [ 39.278113414470248, -6.863015632903385 ], [ 39.278160688809244, -6.863048878954619 ], [ 39.278091747064863, -6.863127104948368 ], [ 39.277869163718776, -6.862939362541773 ], [ 39.277944014755505, -6.86285526956481 ], [ 39.278117353998496, -6.863003899002392 ] ] ] ] } },
{ "type": "Feature", "properties": { "id": 103, "1": "j103" }, "geometry": { "type": "MultiPolygon", "coordinates": [ [ [ [ 39.278322209467476, -6.862992165101113 ], [ 39.278369483806472, -6.863095814552413 ], [ 39.278320239703348, -6.863117326699854 ], [ 39.278330088523973, -6.863136883196685 ], [ 39.27823553984598, -6.863181863136346 ], [ 39.27823553984598, -6.863166217940424 ], [ 39.278209932912354, -6.863172084888954 ], [ 39.278200084091736, -6.863148617094398 ], [ 39.278154779516861, -6.863170129239454 ], [ 39.278125233054993, -6.863101681501809 ], [ 39.278164628337485, -6.863084080653399 ], [ 39.278188265506984, -6.86305083460462 ], [ 39.278322209467476, -6.862992165101113 ] ] ] ] } },
{ "type": "Feature", "properties": { "id": 104, "1": "j104" }, "geometry": { "type": "MultiPolygon", "coordinates": [ [ [ [ 39.277616631143218, -6.862537213830513 ], [ 39.277901834538667, -6.862424527651999 ], [ 39.277936757403424, -6.86249965177397 ], [ 39.277651554007953, -6.8626354530413 ], [ 39.277616631143218, -6.862537213830513 ] ] ] ] } },
{ "type": "Feature", "properties": { "id": 105, "1": "j105" }, "geometry": { "type": "MultiPolygon", "coordinates": [ [ [ [ 39.279292928651202, -6.863054414153846 ], [ 39.279272556980096, -6.863116535942591 ], [ 39.279167788385848, -6.863081863317314 ], [ 39.279186704937601, -6.863045745996633 ], [ 39.27919834589251, -6.863047190689513 ], [ 39.279211441966794, -6.863022630909955 ], [ 39.279292928651202, -6.863054414153846 ] ] ] ] } },
{ "type": "Feature", "properties": { "id": 106, "1": "j106" }, "geometry": { "type": "MultiPolygon", "coordinates": [ [ [ [ 39.279637791940601, -6.863015407445141 ], [ 39.279701817192652, -6.863026964988795 ], [ 39.279669804566637, -6.863130982869047 ], [ 39.279610144672688, -6.863117980635257 ], [ 39.279637791940601, -6.863015407445141 ] ] ] ] } },
{ "type": "Feature", "properties": { "id": 107, "1": "j107" }, "geometry": { "type": "MultiPolygon", "coordinates": [ [ [ [ 39.279466087855589, -6.863142540409893 ], [ 39.279599958837132, -6.863188770570476 ], [ 39.279579587166033, -6.86324800295716 ], [ 39.279442805945763, -6.86320899626432 ], [ 39.279466087855589, -6.863142540409893 ] ] ] ] } },
{ "type": "Feature", "properties": { "id": 108, "1": "j108" }, "geometry": { "type": "MultiPolygon", "coordinates": [ [ [ [ 39.279499555600971, -6.863327461025285 ], [ 39.279576676927299, -6.863266783956277 ], [ 39.279631971463154, -6.863324571641221 ], [ 39.279553395017459, -6.863392472162068 ], [ 39.279499555600971, -6.863327461025285 ] ] ] ] } },
{ "type": "Feature", "properties": { "id": 109, "1": "j109" }, "geometry": { "type": "MultiPolygon", "coordinates": [ [ [ [ 39.27961596515015, -6.863443036373427 ], [ 39.279765842444696, -6.863227777264976 ], [ 39.279924450455432, -6.86333323979336 ], [ 39.279771662922144, -6.863552832928169 ], [ 39.27961596515015, -6.863443036373427 ] ] ] ] } },
{ "type": "Feature", "properties": { "id": 110, "1": "j110" }, "geometry": { "type": "MultiPolygon", "coordinates": [ [ [ [ 39.279796399951351, -6.8636019524313 ], [ 39.279971014275098, -6.863343352637319 ], [ 39.280104885256634, -6.863405474388358 ], [ 39.279937546529716, -6.863695857349653 ], [ 39.279796399951351, -6.8636019524313 ] ] ] ] } },
{ "type": "Feature", "properties": { "id": 111, "1": "j111" }, "geometry": { "type": "MultiPolygon", "coordinates": [ [ [ [ 39.280721889857269, -6.865185784463447 ], [ 39.280789995513587, -6.865181558379089 ], [ 39.280798508720615, -6.8653083408935 ], [ 39.280730403064304, -6.865312566976733 ], [ 39.280721889857269, -6.865185784463447 ] ] ] ] } },
{ "type": "Feature", "properties": { "id": 112, "1": "j112" }, "geometry": { "type": "MultiPolygon", "coordinates": [ [ [ [ 39.280692093632624, -6.865380184303339 ], [ 39.280813406832941, -6.865369619096688 ], [ 39.28082830494526, -6.865502740683325 ], [ 39.280704863443177, -6.865519645009121 ], [ 39.280692093632624, -6.865380184303339 ] ] ] ] } },
{ "type": "Feature", "properties": { "id": 113, "1": "j113" }, "geometry": { "type": "MultiPolygon", "coordinates": [ [ [ [ 39.280658040804454, -6.865633749192543 ], [ 39.280945361542059, -6.865629523112164 ], [ 39.280953874749109, -6.865921122570306 ], [ 39.280664425709745, -6.865921122570306 ], [ 39.280658040804454, -6.865633749192543 ] ] ] ] } },
{ "type": "Feature", "properties": { "id": 114, "1": "j114" }, "geometry": { "type": "MultiPolygon", "coordinates": [ [ [ [ 39.280664425709745, -6.865950705114044 ], [ 39.28088789739455, -6.865950705114044 ], [ 39.280900667205103, -6.866098617805165 ], [ 39.280666554011496, -6.866096504767044 ], [ 39.280664425709745, -6.865950705114044 ] ] ] ] } },
{ "type": "Feature", "properties": { "id": 115, "1": "j115" }, "geometry": { "type": "MultiPolygon", "coordinates": [ [ [ [ 39.280981542671988, -6.865840827085167 ], [ 39.281083701156462, -6.865840827085167 ], [ 39.281081572854696, -6.865912670414613 ], [ 39.280983670973733, -6.865914783453549 ], [ 39.280981542671988, -6.865840827085167 ] ] ] ] } },
{ "type": "Feature", "properties": { "id": 116, "1": "j116" }, "geometry": { "type": "MultiPolygon", "coordinates": [ [ [ [ 39.281021980405427, -6.865800679337516 ], [ 39.281053904931817, -6.865730949030915 ], [ 39.281168833226864, -6.865773209824017 ], [ 39.281128395493411, -6.865849279242137 ], [ 39.281021980405427, -6.865800679337516 ] ] ] ] } },
{ "type": "Feature", "properties": { "id": 117, "1": "j117" }, "geometry": { "type": "MultiPolygon", "coordinates": [ [ [ [ 39.280275425274482, -6.863888501736319 ], [ 39.280439134975097, -6.864077395318866 ], [ 39.280439134975097, -6.864077395318866 ], [ 39.280301972793488, -6.864196002878894 ], [ 39.2801648106119, -6.86399832359576 ], [ 39.280275425274482, -6.863888501736319 ] ] ] ] } },
{ "type": "Feature", "properties": { "id": 118, "1": "j118" }, "geometry": { "type": "MultiPolygon", "coordinates": [ [ [ [ 39.281085124604559, -6.864648468484597 ], [ 39.281164767161606, -6.864521075299312 ], [ 39.281279806410694, -6.864604539803867 ], [ 39.281182465507619, -6.864714361498087 ], [ 39.281085124604559, -6.864648468484597 ] ] ] ] } },
{ "type": "Feature", "properties": { "id": 119, "1": "j119" }, "geometry": { "type": "MultiPolygon", "coordinates": [ [ [ [ 39.280525361188673, -6.864999069762289 ], [ 39.280781690513294, -6.864974599417109 ], [ 39.280781690513294, -6.865062692653875 ], [ 39.280781690513294, -6.865062692653875 ], [ 39.280520431778584, -6.865072480790285 ], [ 39.280525361188673, -6.864999069762289 ] ] ] ] } },
{ "type": "Feature", "properties": { "id": 120, "1": "jengo1" }, "geometry": { "type": "MultiPolygon", "coordinates": [ [ [ [ 39.280850702254554, -6.864950129070669 ], [ 39.280495784728132, -6.86494034093174 ], [ 39.280500714138221, -6.864793518823662 ], [ 39.280663384671165, -6.864778836610362 ], [ 39.280722537592233, -6.864680955176792 ], [ 39.280791549333486, -6.864725001824389 ], [ 39.280757043462863, -6.864778836610362 ], [ 39.280781690513294, -6.864788624752612 ], [ 39.280781690513294, -6.864808201036507 ], [ 39.280840843434376, -6.864808201036507 ], [ 39.280850702254554, -6.864950129070669 ] ] ] ] } },
{ "type": "Feature", "properties": { "id": 121, "1": "jengo2" }, "geometry": { "type": "MultiPolygon", "coordinates": [ [ [ [ 39.28067324349135, -6.864534132988692 ], [ 39.280752114052774, -6.864597755942428 ], [ 39.280604231750104, -6.864769048467909 ], [ 39.280510572958391, -6.864680955176792 ], [ 39.280574655289563, -6.864573285576612 ], [ 39.280623949390453, -6.86458307372309 ], [ 39.28067324349135, -6.864534132988692 ] ] ] ] } },
{ "type": "Feature", "properties": { "id": 122, "1": "jengo3" }, "geometry": { "type": "MultiPolygon", "coordinates": [ [ [ [ 39.280515502368495, -6.864539027062357 ], [ 39.280550008239111, -6.864494980397546 ], [ 39.280614090570282, -6.864519450767388 ], [ 39.280515502368495, -6.864578179649877 ], [ 39.280515502368495, -6.864539027062357 ] ] ] ] } },
{ "type": "Feature", "properties": { "id": 123, "1": "jengo4" }, "geometry": { "type": "MultiPolygon", "coordinates": [ [ [ [ 39.281135872662091, -6.863986469123962 ], [ 39.281168316165115, -6.863942179039022 ], [ 39.281330533680297, -6.864062970170061 ], [ 39.281306201053027, -6.864107260243759 ], [ 39.281135872662091, -6.863986469123962 ] ] ] ] } },
{ "type": "Feature", "properties": { "id": 124, "1": "jengo5" }, "geometry": { "type": "MultiPolygon", "coordinates": [ [ [ [ 39.281330533680297, -6.86389788894996 ], [ 39.281403531562127, -6.86392204718087 ], [ 39.281346755431827, -6.864002574608373 ], [ 39.281277812987874, -6.863970363639007 ], [ 39.281330533680297, -6.86389788894996 ] ] ] ] } },
{ "type": "Feature", "properties": { "id": 125, "1": "jengo6" }, "geometry": { "type": "MultiPolygon", "coordinates": [ [ [ [ 39.281168316165115, -6.863720728552504 ], [ 39.28125753579846, -6.863744886792402 ], [ 39.281241314046952, -6.863809308759475 ], [ 39.281143983537852, -6.863760992284988 ], [ 39.281168316165115, -6.863720728552504 ] ] ] ] } },
{ "type": "Feature", "properties": { "id": 127, "1": "jengo8" }, "geometry": { "type": "MultiPolygon", "coordinates": [ [ [ [ 39.280880027228598, -6.863685533343611 ], [ 39.280926873143642, -6.863702803821296 ], [ 39.280871509789499, -6.863808508768834 ], [ 39.280828922594011, -6.863783139583566 ], [ 39.280880027228598, -6.863685533343611 ] ] ] ] } },
{ "type": "Feature", "properties": { "id": 128, "1": "jengo7" }, "geometry": { "type": "MultiPolygon", "coordinates": [ [ [ [ 39.280931131863177, -6.863867703529203 ], [ 39.28096094290003, -6.863804280571381 ], [ 39.281114256803804, -6.863918441889374 ], [ 39.281071669608302, -6.863952267459815 ], [ 39.280931131863177, -6.863867703529203 ] ] ] ] } },
{ "type": "Feature", "properties": { "id": 129, "1": "jengo8" }, "geometry": { "type": "MultiPolygon", "coordinates": [ [ [ [ 39.280918355704543, -6.86361401164722 ], [ 39.281114256803804, -6.863677434630393 ], [ 39.281088704486493, -6.863740857605111 ], [ 39.280922614424085, -6.863647837239296 ], [ 39.280918355704543, -6.86361401164722 ] ] ] ] } },
{ "type": "Feature", "properties": { "id": 130, "1": "jengo10" }, "geometry": { "type": "MultiPolygon", "coordinates": [ [ [ [ 39.281254794548921, -6.864180589997427 ], [ 39.281190913755673, -6.864125623470605 ], [ 39.281216466072976, -6.864074885132519 ], [ 39.281267570707556, -6.864146764443211 ], [ 39.281254794548921, -6.864180589997427 ] ] ] ] } },
{ "type": "Feature", "properties": { "id": 131, "1": "jengo11" }, "geometry": { "type": "MultiPolygon", "coordinates": [ [ [ [ 39.280880027228598, -6.86394381106743 ], [ 39.280892803387239, -6.863905757299838 ], [ 39.280995012656426, -6.86393958287118 ], [ 39.281054634730097, -6.864019918593491 ], [ 39.281088704486493, -6.864028374984524 ], [ 39.281088704486493, -6.864066428742312 ], [ 39.28106315216921, -6.864087569717548 ], [ 39.280880027228598, -6.86394381106743 ] ] ] ] } },
{ "type": "Feature", "properties": { "id": 133, "1": "jengo12" }, "geometry": { "type": "MultiPolygon", "coordinates": [ [ [ [ 39.27693196898381, -6.864025436600499 ], [ 39.277022954181859, -6.86380156763857 ], [ 39.277149542283475, -6.863899755792731 ], [ 39.277102071745375, -6.863962596200764 ], [ 39.277094159989019, -6.864033291649883 ], [ 39.27693196898381, -6.864025436600499 ] ] ] ] } },
{ "type": "Feature", "properties": { "id": 114, "1": "jengo13" }, "geometry": { "type": "MultiPolygon", "coordinates": [ [ [ [ 39.276602985754501, -6.864847197124122 ], [ 39.276622305754785, -6.864814314564327 ], [ 39.27672166575622, -6.864869118829388 ], [ 39.276710625756053, -6.864893780746604 ], [ 39.276602985754501, -6.864847197124122 ] ] ] ] } },
{ "type": "Feature", "properties": { "id": 115, "1": "jengo14" }, "geometry": { "type": "MultiPolygon", "coordinates": [ [ [ [ 39.276649905755178, -6.865008869676726 ], [ 39.276683025755652, -6.864929403513663 ], [ 39.276760305756781, -6.864956805640355 ], [ 39.27672166575622, -6.865039012010965 ], [ 39.276649905755178, -6.865008869676726 ] ] ] ] } },
{ "type": "Feature", "properties": { "id": 136, "1": "jengo15" }, "geometry": { "type": "MultiPolygon", "coordinates": [ [ [ [ 39.276597465754406, -6.865189723653539 ], [ 39.276633345754945, -6.865096556461945 ], [ 39.276694065755827, -6.865118478155723 ], [ 39.276658185755302, -6.865208905131895 ], [ 39.276597465754406, -6.865189723653539 ] ] ] ] } },
{ "type": "Feature", "properties": { "id": 137, "1": "jengo16" }, "geometry": { "type": "MultiPolygon", "coordinates": [ [ [ [ 39.276387705751368, -6.865132179213825 ], [ 39.276429105751973, -6.865019830525759 ], [ 39.276487065752811, -6.865047232647247 ], [ 39.276431865752002, -6.865159581328841 ], [ 39.276431865752002, -6.865159581328841 ], [ 39.276387705751368, -6.865132179213825 ] ] ] ] } },
{ "type": "Feature", "properties": { "id": 138, "1": "jengo17" }, "geometry": { "type": "MultiPolygon", "coordinates": [ [ [ [ 39.276572625754056, -6.865082855402817 ], [ 39.276520185753299, -6.865195204076005 ], [ 39.27649534575292, -6.865181503019718 ], [ 39.276553305753772, -6.865066414131347 ], [ 39.276572625754056, -6.865082855402817 ] ] ] ] } }
]
}
