{
"type": "FeatureCollection",
"name": "mpaka",
"crs": { "type": "name", "properties": { "name": "urn:ogc:def:crs:OGC:1.3:CRS84" } },
"features": [
{ "type": "Feature", "properties": { "id": 1 }, "geometry": { "type": "MultiLineString", "coordinates": [ [ [ 39.27651260496765, -6.865616806581838 ], [ 39.277297328404266, -6.863629804672235 ], [ 39.277167332296081, -6.863471133537528 ], [ 39.27732221977417, -6.863357823777539 ], [ 39.27741189147202, -6.863252607547683 ], [ 39.27746895527973, -6.86316357841195 ], [ 39.277672754593006, -6.862669871084333 ], [ 39.278015137439318, -6.862524186857039 ], [ 39.28193623622677, -6.864078149649603 ], [ 39.281569397462874, -6.864976532074748 ], [ 39.281316686314412, -6.865551172196125 ], [ 39.281316686314412, -6.86565638791784 ], [ 39.280862271568253, -6.866180837847685 ], [ 39.280126470472311, -6.867035450592064 ], [ 39.279380953223409, -6.866735635153929 ], [ 39.27651260496765, -6.865616806581838 ] ] ] } }
]
}
